{"type": "FeatureCollection", "features": [ {"type": "Feature", "properties": {"norad_id": 67011, "name": "STARLINK-36167", "group": "last-30-days", "lat": 49.01787648705847, "lon": -40.79863650808299, "alt_km": 310.1527719172036, "timestamp": "2025-12-22T20:43:44.568139+00:00", "meta": {"OBJECT_NAME": "STARLINK-36167", "OBJECT_ID": "2025-293J", "EPOCH": "2025-12-22T14:00:01.999872", "MEAN_MOTION": 15.87083598, "ECCENTRICITY": 0.00037194, "INCLINATION": 69.9936, "RA_OF_ASC_NODE": 295.2111, "ARG_OF_PERICENTER": 271.7241, "MEAN_ANOMALY": 340.9802, "EPHEMERIS_TYPE": 0, "CLASSIFICATION_TYPE": "U", "NORAD_CAT_ID": 67011, "ELEMENT_SET_NO": 999, "REV_AT_EPOCH": 169, "BSTAR": -0.0071081759, "MEAN_MOTION_DOT": -0.01621198, "MEAN_MOTION_DDOT": 0}, "tle": {"line1": "1 67011U 25293J   25356.58335648 -.01621198  00000+0 -71082-2 0  9998", "line2": "2 67011  69.9936 295.2111 0003719 271.7241 340.9802 15.87083598  1690"}}, "geometry": {"type": "Point", "coordinates": [-40.79863650808299, 49.01787648705847]}}, {"type": "Feature", "properties": {"norad_id": 67012, "name": "STARLINK-36175", "group": "last-30-days", "lat": 53.206345525383966, "lon": -36.447289157223956, "alt_km": 309.9054520464924, "timestamp": "2025-12-22T20:43:44.568188+00:00", "meta": {"OBJECT_NAME": "STARLINK-36175", "OBJECT_ID": "2025-293K", "EPOCH": "2025-12-22T14:00:01.999872", "MEAN_MOTION": 15.87051256, "ECCENTRICITY": 0.00035138, "INCLINATION": 69.9935, "RA_OF_ASC_NODE": 295.2054, "ARG_OF_PERICENTER": 259.4044, "MEAN_ANOMALY": 358.3383, "EPHEMERIS_TYPE": 0, "CLASSIFICATION_TYPE": "U", "NORAD_CAT_ID": 67012, "ELEMENT_SET_NO": 999, "REV_AT_EPOCH": 169, "BSTAR": -0.0071389519, "MEAN_MOTION_DOT": -0.01624819, "MEAN_MOTION_DDOT": 0}, "tle": {"line1": "1 67012U 25293K   25356.58335648 -.01624819  00000+0 -71390-2 0  9994", "line2": "2 67012  69.9935 295.2054 0003513 259.4044 358.3383 15.87051256  1695"}}, "geometry": {"type": "Point", "coordinates": [-36.447289157223956, 53.206345525383966]}}, {"type": "Feature", "properties": {"norad_id": 67013, "name": "STARLINK-35856", "group": "last-30-days", "lat": 55.39286679025751, "lon": -33.73207996498076, "alt_km": 309.6835374767952, "timestamp": "2025-12-22T20:43:44.568203+00:00", "meta": {"OBJECT_NAME": "STARLINK-35856", "OBJECT_ID": "2025-293L", "EPOCH": "2025-12-22T14:00:01.999872", "MEAN_MOTION": 15.87032793, "ECCENTRICITY": 0.0003476, "INCLINATION": 69.9932, "RA_OF_ASC_NODE": 295.2018, "ARG_OF_PERICENTER": 260.0806, "MEAN_ANOMALY": 0.3807, "EPHEMERIS_TYPE": 0, "CLASSIFICATION_TYPE": "U", "NORAD_CAT_ID": 67013, "ELEMENT_SET_NO": 999, "REV_AT_EPOCH": 169, "BSTAR": -0.007176247, "MEAN_MOTION_DOT": -0.01630892, "MEAN_MOTION_DDOT": 0}, "tle": {"line1": "1 67013U 25293L   25356.58335648 -.01630892  00000+0 -71762-2 0  9996", "line2": "2 67013  69.9932 295.2018 0003476 260.0806   0.3807 15.87032793  1695"}}, "geometry": {"type": "Point", "coordinates": [-33.73207996498076, 55.39286679025751]}}, {"type": "Feature", "properties": {"norad_id": 67014, "name": "STARLINK-36207", "group": "last-30-days", "lat": 57.390232670551136, "lon": -30.89111044439318, "alt_km": 309.74119972796143, "timestamp": "2025-12-22T20:43:44.568216+00:00", "meta": {"OBJECT_NAME": "STARLINK-36207", "OBJECT_ID": "2025-293M", "EPOCH": "2025-12-22T14:00:01.999872", "MEAN_MOTION": 15.87018625, "ECCENTRICITY": 0.00039229, "INCLINATION": 69.9937, "RA_OF_ASC_NODE": 295.1993, "ARG_OF_PERICENTER": 263.9193, "MEAN_ANOMALY": 359.0915, "EPHEMERIS_TYPE": 0, "CLASSIFICATION_TYPE": "U", "NORAD_CAT_ID": 67014, "ELEMENT_SET_NO": 999, "REV_AT_EPOCH": 175, "BSTAR": -0.0071787589, "MEAN_MOTION_DOT": -0.01630916, "MEAN_MOTION_DDOT": 0}, "tle": {"line1": "1 67014U 25293M   25356.58335648 -.01630916  00000+0 -71788-2 0  9992", "line2": "2 67014  69.9937 295.1993 0003922 263.9193 359.0915 15.87018625  1758"}}, "geometry": {"type": "Point", "coordinates": [-30.89111044439318, 57.390232670551136]}}, {"type": "Feature", "properties": {"norad_id": 67015, "name": "STARLINK-36093", "group": "last-30-days", "lat": 61.10509024464215, "lon": -24.299607531222403, "alt_km": 309.5262154510574, "timestamp": "2025-12-22T20:43:44.568228+00:00", "meta": {"OBJECT_NAME": "STARLINK-36093", "OBJECT_ID": "2025-293N", "EPOCH": "2025-12-22T14:00:01.999872", "MEAN_MOTION": 15.86986691, "ECCENTRICITY": 0.00040256, "INCLINATION": 69.9932, "RA_OF_ASC_NODE": 295.1928, "ARG_OF_PERICENTER": 264.9424, "MEAN_ANOMALY": 3.1099, "EPHEMERIS_TYPE": 0, "CLASSIFICATION_TYPE": "U", "NORAD_CAT_ID": 67015, "ELEMENT_SET_NO": 999, "REV_AT_EPOCH": 169, "BSTAR": -0.0072211181, "MEAN_MOTION_DOT": -0.01637187, "MEAN_MOTION_DDOT": 0}, "tle": {"line1": "1 67015U 25293N   25356.58335648 -.01637187  00000+0 -72211-2 0  9992", "line2": "2 67015  69.9932 295.1928 0004025 264.9424   3.1099 15.86986691  1694"}}, "geometry": {"type": "Point", "coordinates": [-24.299607531222403, 61.10509024464215]}}, {"type": "Feature", "properties": {"norad_id": 67016, "name": "STARLINK-36120", "group": "last-30-days", "lat": 59.18407933893756, "lon": -27.96063152480928, "alt_km": 309.6441243365898, "timestamp": "2025-12-22T20:43:44.568238+00:00", "meta": {"OBJECT_NAME": "STARLINK-36120", "OBJECT_ID": "2025-293P", "EPOCH": "2025-12-22T14:00:01.999872", "MEAN_MOTION": 15.87005165, "ECCENTRICITY": 0.00039867, "INCLINATION": 69.9935, "RA_OF_ASC_NODE": 295.1962, "ARG_OF_PERICENTER": 263.3791, "MEAN_ANOMALY": 2.0079, "EPHEMERIS_TYPE": 0, "CLASSIFICATION_TYPE": "U", "NORAD_CAT_ID": 67016, "ELEMENT_SET_NO": 999, "REV_AT_EPOCH": 169, "BSTAR": -0.0071802923, "MEAN_MOTION_DOT": -0.01630347, "MEAN_MOTION_DDOT": 0}, "tle": {"line1": "1 67016U 25293P   25356.58335648 -.01630347  00000+0 -71803-2 0  9990", "line2": "2 67016  69.9935 295.1962 0003986 263.3791   2.0079 15.87005165  1696"}}, "geometry": {"type": "Point", "coordinates": [-27.96063152480928, 59.18407933893756]}}, {"type": "Feature", "properties": {"norad_id": 67017, "name": "STARLINK-35498", "group": "last-30-days", "lat": 62.82235839082555, "lon": -20.408370649804116, "alt_km": 309.4313269003551, "timestamp": "2025-12-22T20:43:44.568250+00:00", "meta": {"OBJECT_NAME": "STARLINK-35498", "OBJECT_ID": "2025-293Q", "EPOCH": "2025-12-22T14:00:01.999872", "MEAN_MOTION": 15.8681581, "ECCENTRICITY": 0.00038057, "INCLINATION": 69.9928, "RA_OF_ASC_NODE": 295.1893, "ARG_OF_PERICENTER": 265.7771, "MEAN_ANOMALY": 4.9046, "EPHEMERIS_TYPE": 0, "CLASSIFICATION_TYPE": "U", "NORAD_CAT_ID": 67017, "ELEMENT_SET_NO": 999, "REV_AT_EPOCH": 188, "BSTAR": -0.0065754867, "MEAN_MOTION_DOT": -0.01466402, "MEAN_MOTION_DDOT": 0}, "tle": {"line1": "1 67017U 25293Q   25356.58335648 -.01466402  00000+0 -65755-2 0  9999", "line2": "2 67017  69.9928 295.1893 0003805 265.7771   4.9046 15.86815810  1887"}}, "geometry": {"type": "Point", "coordinates": [-20.408370649804116, 62.82235839082555]}}, {"type": "Feature", "properties": {"norad_id": 67018, "name": "STARLINK-36106", "group": "last-30-days", "lat": 64.40647393874207, "lon": -16.09109981758466, "alt_km": 309.32090389637415, "timestamp": "2025-12-22T20:43:44.568263+00:00", "meta": {"OBJECT_NAME": "STARLINK-36106", "OBJECT_ID": "2025-293R", "EPOCH": "2025-12-22T14:00:01.999872", "MEAN_MOTION": 15.86826238, "ECCENTRICITY": 0.00038431, "INCLINATION": 69.9927, "RA_OF_ASC_NODE": 295.1862, "ARG_OF_PERICENTER": 265.3747, "MEAN_ANOMALY": 7.7882, "EPHEMERIS_TYPE": 0, "CLASSIFICATION_TYPE": "U", "NORAD_CAT_ID": 67018, "ELEMENT_SET_NO": 999, "REV_AT_EPOCH": 180, "BSTAR": -0.006657641, "MEAN_MOTION_DOT": -0.0148292, "MEAN_MOTION_DDOT": 0}, "tle": {"line1": "1 67018U 25293R   25356.58335648 -.01482920  00000+0 -66576-2 0  9995", "line2": "2 67018  69.9927 295.1862 0003843 265.3747   7.7882 15.86826238  1801"}}, "geometry": {"type": "Point", "coordinates": [-16.09109981758466, 64.40647393874207]}}, {"type": "Feature", "properties": {"norad_id": 67019, "name": "STARLINK-35688", "group": "last-30-days", "lat": 65.76245124803097, "lon": -11.589507418354227, "alt_km": 309.18635039678156, "timestamp": "2025-12-22T20:43:44.568272+00:00", "meta": {"OBJECT_NAME": "STARLINK-35688", "OBJECT_ID": "2025-293S", "EPOCH": "2025-12-22T14:00:01.999872", "MEAN_MOTION": 15.86932398, "ECCENTRICITY": 0.0003943, "INCLINATION": 69.9927, "RA_OF_ASC_NODE": 295.1835, "ARG_OF_PERICENTER": 265.528, "MEAN_ANOMALY": 9.8973, "EPHEMERIS_TYPE": 0, "CLASSIFICATION_TYPE": "U", "NORAD_CAT_ID": 67019, "ELEMENT_SET_NO": 999, "REV_AT_EPOCH": 188, "BSTAR": -0.0072045201, "MEAN_MOTION_DOT": -0.01629961, "MEAN_MOTION_DDOT": 0}, "tle": {"line1": "1 67019U 25293S   25356.58335648 -.01629961  00000+0 -72045-2 0  9992", "line2": "2 67019  69.9927 295.1835 0003943 265.5280   9.8973 15.86932398  1884"}}, "geometry": {"type": "Point", "coordinates": [-11.589507418354227, 65.76245124803097]}}, {"type": "Feature", "properties": {"norad_id": 67020, "name": "STARLINK-36172", "group": "last-30-days", "lat": 67.2394061281443, "lon": -5.3413237106170195, "alt_km": 309.1674956404404, "timestamp": "2025-12-22T20:43:44.568282+00:00", "meta": {"OBJECT_NAME": "STARLINK-36172", "OBJECT_ID": "2025-293T", "EPOCH": "2025-12-22T14:00:01.999872", "MEAN_MOTION": 15.86912672, "ECCENTRICITY": 0.00039909, "INCLINATION": 69.9926, "RA_OF_ASC_NODE": 295.1802, "ARG_OF_PERICENTER": 264.5478, "MEAN_ANOMALY": 13.7929, "EPHEMERIS_TYPE": 0, "CLASSIFICATION_TYPE": "U", "NORAD_CAT_ID": 67020, "ELEMENT_SET_NO": 999, "REV_AT_EPOCH": 180, "BSTAR": -0.0072462769, "MEAN_MOTION_DOT": -0.01636877, "MEAN_MOTION_DDOT": 0}, "tle": {"line1": "1 67020U 25293T   25356.58335648 -.01636877  00000+0 -72463-2 0  9992", "line2": "2 67020  69.9926 295.1802 0003990 264.5478  13.7929 15.86912672  1809"}}, "geometry": {"type": "Point", "coordinates": [-5.3413237106170195, 67.2394061281443]}}]}